{
  "type": "FeatureCollection",
  "features": [
    {
      "type": "Feature",
      "properties": {
        "norad_id": 34815,
        "name": "COSMOS 2251 DEB",
        "group": "cosmos-2251-debris",
        "lat": 4.524385268927427,
        "lon": -130.40607140160319,
        "alt_km": 621.4224669711466,
        "timestamp": "2025-12-19T14:48:36.643347+00:00",
        "meta_object_name": "COSMOS 2251 DEB",
        "meta_object_id": "1993-036ABE",
        "meta_epoch": "2025-12-18T19:18:00.804672",
        "meta_mean_motion": 14.78381358,
        "meta_eccentricity": 0.00588322,
        "meta_inclination": 74.0448,
        "meta_ra_of_asc_node": 229.8924,
        "meta_arg_of_pericenter": 297.7055,
        "meta_mean_anomaly": 61.8158,
        "meta_ephemeris_type": 0,
        "meta_classification_type": "U",
        "meta_norad_cat_id": 34815,
        "meta_element_set_no": 999,
        "meta_rev_at_epoch": 88717,
        "meta_bstar": 0.00057176536,
        "meta_mean_motion_dot": 4.252e-05,
        "meta_mean_motion_ddot": 0,
        "tle_line1": "1 34815U 93036ABE 25352.80417598  .00004252  00000+0  57177-3 0  9993",
        "tle_line2": "2 34815  74.0448 229.8924 0058832 297.7055  61.8158 14.78381358887175"
      },
      "geometry": {
        "type": "Point",
        "coordinates": [
          -130.40607140160319,
          4.524385268927427
        ]
      }
    },
    {
      "type": "Feature",
      "properties": {
        "norad_id": 34816,
        "name": "COSMOS 2251 DEB",
        "group": "cosmos-2251-debris",
        "lat": -46.833197706290065,
        "lon": -30.15064063630074,
        "alt_km": 815.6914869488755,
        "timestamp": "2025-12-19T14:48:36.643358+00:00",
        "meta_object_name": "COSMOS 2251 DEB",
        "meta_object_id": "1993-036ABF",
        "meta_epoch": "2025-12-19T03:58:58.439424",
        "meta_mean_motion": 13.58340637,
        "meta_eccentricity": 0.03732219,
        "meta_inclination": 73.8873,
        "meta_ra_of_asc_node": 132.6366,
        "meta_arg_of_pericenter": 196.0065,
        "meta_mean_anomaly": 345.7123,
        "meta_ephemeris_type": 0,
        "meta_classification_type": "U",
        "meta_norad_cat_id": 34816,
        "meta_element_set_no": 999,
        "meta_rev_at_epoch": 82870,
        "meta_bstar": 0.0010656288,
        "meta_mean_motion_dot": 1.198e-05,
        "meta_mean_motion_ddot": 0,
        "tle_line1": "1 34816U 93036ABF 25353.16595416  .00001198  00000+0  10656-2 0  9996",
        "tle_line2": "2 34816  73.8873 132.6366 0373221 196.0065 345.7123 13.58340637828702"
      },
      "geometry": {
        "type": "Point",
        "coordinates": [
          -30.15064063630074,
          -46.833197706290065
        ]
      }
    },
    {
      "type": "Feature",
      "properties": {
        "norad_id": 34818,
        "name": "COSMOS 2251 DEB",
        "group": "cosmos-2251-debris",
        "lat": -22.50398522189947,
        "lon": -82.5170561621308,
        "alt_km": 757.2708758826939,
        "timestamp": "2025-12-19T14:48:36.643368+00:00",
        "meta_object_name": "COSMOS 2251 DEB",
        "meta_object_id": "1993-036ABH",
        "meta_epoch": "2025-12-18T20:48:35.786304",
        "meta_mean_motion": 14.3697434,
        "meta_eccentricity": 0.00244833,
        "meta_inclination": 74.036,
        "meta_ra_of_asc_node": 285.6723,
        "meta_arg_of_pericenter": 359.9167,
        "meta_mean_anomaly": 58.515,
        "meta_ephemeris_type": 0,
        "meta_classification_type": "U",
        "meta_norad_cat_id": 34818,
        "meta_element_set_no": 999,
        "meta_rev_at_epoch": 87458,
        "meta_bstar": 0.00016248256,
        "meta_mean_motion_dot": 4.57e-06,
        "meta_mean_motion_ddot": 0,
        "tle_line1": "1 34818U 93036ABH 25352.86708086  .00000457  00000+0  16248-3 0  9994",
        "tle_line2": "2 34818  74.0360 285.6723 0024483 359.9167  58.5150 14.36974340874587"
      },
      "geometry": {
        "type": "Point",
        "coordinates": [
          -82.5170561621308,
          -22.50398522189947
        ]
      }
    },
    {
      "type": "Feature",
      "properties": {
        "norad_id": 34819,
        "name": "COSMOS 2251 DEB",
        "group": "cosmos-2251-debris",
        "lat": -22.76848404076985,
        "lon": -43.653907013167164,
        "alt_km": 674.8468866996682,
        "timestamp": "2025-12-19T14:48:36.643379+00:00",
        "meta_object_name": "COSMOS 2251 DEB",
        "meta_object_id": "1993-036ABJ",
        "meta_epoch": "2025-12-18T20:33:33.194016",
        "meta_mean_motion": 14.64055587,
        "meta_eccentricity": 0.00155752,
        "meta_inclination": 74.0176,
        "meta_ra_of_asc_node": 130.8987,
        "meta_arg_of_pericenter": 225.7047,
        "meta_mean_anomaly": 291.5626,
        "meta_ephemeris_type": 0,
        "meta_classification_type": "U",
        "meta_norad_cat_id": 34819,
        "meta_element_set_no": 999,
        "meta_rev_at_epoch": 88318,
        "meta_bstar": 0.0011847219,
        "meta_mean_motion_dot": 6.202e-05,
        "meta_mean_motion_ddot": 0,
        "tle_line1": "1 34819U 93036ABJ 25352.85663419  .00006202  00000+0  11847-2 0  9997",
        "tle_line2": "2 34819  74.0176 130.8987 0015575 225.7047 291.5626 14.64055587883182"
      },
      "geometry": {
        "type": "Point",
        "coordinates": [
          -43.653907013167164,
          -22.76848404076985
        ]
      }
    },
    {
      "type": "Feature",
      "properties": {
        "norad_id": 34823,
        "name": "COSMOS 2251 DEB",
        "group": "cosmos-2251-debris",
        "lat": 24.4582120900467,
        "lon": 96.74037496794061,
        "alt_km": 799.4162217789353,
        "timestamp": "2025-12-19T14:48:36.643389+00:00",
        "meta_object_name": "COSMOS 2251 DEB",
        "meta_object_id": "1993-036ABN",
        "meta_epoch": "2025-12-17T16:29:01.822560",
        "meta_mean_motion": 14.54962902,
        "meta_eccentricity": 0.01543529,
        "meta_inclination": 74.0424,
        "meta_ra_of_asc_node": 92.9148,
        "meta_arg_of_pericenter": 176.4751,
        "meta_mean_anomaly": 183.7542,
        "meta_ephemeris_type": 0,
        "meta_classification_type": "U",
        "meta_norad_cat_id": 34823,
        "meta_element_set_no": 999,
        "meta_rev_at_epoch": 88453,
        "meta_bstar": 0.00051395054,
        "meta_mean_motion_dot": 2.564e-05,
        "meta_mean_motion_ddot": 0,
        "tle_line1": "1 34823U 93036ABN 25351.68682665  .00002564  00000+0  51395-3 0  9996",
        "tle_line2": "2 34823  74.0424  92.9148 0154352 176.4751 183.7542 14.54962902884537"
      },
      "geometry": {
        "type": "Point",
        "coordinates": [
          96.74037496794061,
          24.4582120900467
        ]
      }
    },
    {
      "type": "Feature",
      "properties": {
        "norad_id": 34845,
        "name": "COSMOS 2251 DEB",
        "group": "cosmos-2251-debris",
        "lat": 47.41685265609847,
        "lon": -62.647903097960196,
        "alt_km": 750.1767795276983,
        "timestamp": "2025-12-19T14:48:36.643400+00:00",
        "meta_object_name": "COSMOS 2251 DEB",
        "meta_object_id": "1993-036ABP",
        "meta_epoch": "2025-12-18T03:20:16.618272",
        "meta_mean_motion": 14.45869846,
        "meta_eccentricity": 0.00226187,
        "meta_inclination": 74.0247,
        "meta_ra_of_asc_node": 138.2724,
        "meta_arg_of_pericenter": 298.416,
        "meta_mean_anomaly": 61.4719,
        "meta_ephemeris_type": 0,
        "meta_classification_type": "U",
        "meta_norad_cat_id": 34845,
        "meta_element_set_no": 999,
        "meta_rev_at_epoch": 87544,
        "meta_bstar": 0.00023548418,
        "meta_mean_motion_dot": 8.12e-06,
        "meta_mean_motion_ddot": 0,
        "tle_line1": "1 34845U 93036ABP 25352.13908123  .00000812  00000+0  23548-3 0  9994",
        "tle_line2": "2 34845  74.0247 138.2724 0022618 298.4160  61.4719 14.45869846875447"
      },
      "geometry": {
        "type": "Point",
        "coordinates": [
          -62.647903097960196,
          47.41685265609847
        ]
      }
    },
    {
      "type": "Feature",
      "properties": {
        "norad_id": 34846,
        "name": "COSMOS 2251 DEB",
        "group": "cosmos-2251-debris",
        "lat": 69.3354915733779,
        "lon": 19.51867067713119,
        "alt_km": 743.493798771633,
        "timestamp": "2025-12-19T14:48:36.643410+00:00",
        "meta_object_name": "COSMOS 2251 DEB",
        "meta_object_id": "1993-036ABQ",
        "meta_epoch": "2025-12-19T02:43:18.117696",
        "meta_mean_motion": 14.47249757,
        "meta_eccentricity": 0.00261944,
        "meta_inclination": 74.0309,
        "meta_ra_of_asc_node": 249.8559,
        "meta_arg_of_pericenter": 315.4558,
        "meta_mean_anomaly": 44.4495,
        "meta_ephemeris_type": 0,
        "meta_classification_type": "U",
        "meta_norad_cat_id": 34846,
        "meta_element_set_no": 999,
        "meta_rev_at_epoch": 87496,
        "meta_bstar": 0.00056112106,
        "meta_mean_motion_dot": 2.033e-05,
        "meta_mean_motion_ddot": 0,
        "tle_line1": "1 34846U 93036ABQ 25353.11340414  .00002033  00000+0  56112-3 0  9997",
        "tle_line2": "2 34846  74.0309 249.8559 0026194 315.4558  44.4495 14.47249757874969"
      },
      "geometry": {
        "type": "Point",
        "coordinates": [
          19.51867067713119,
          69.3354915733779
        ]
      }
    }
  ]
}